{
"type": "FeatureCollection",
"name": "transects_tahiti",
"crs": { "type": "name", "properties": { "name": "urn:ogc:def:crs:OGC:1.3:CRS84" } },
"features": [
{ "type": "Feature", "properties": { "id": null }, "geometry": { "type": "MultiLineString", "coordinates": [ [ [ -149.473632057559314, -17.783876909524498 ], [ -149.470637188173527, -17.786168995143385 ] ] ] } },
{ "type": "Feature", "properties": { "id": 1 }, "geometry": { "type": "MultiLineString", "coordinates": [ [ [ -149.800464602623123, -17.474428949652292 ], [ -149.797418502677573, -17.474315493651606 ] ] ] } },
{ "type": "Feature", "properties": { "id": 2 }, "geometry": { "type": "MultiLineString", "coordinates": [ [ [ -149.780727634644848, -17.471768792067333 ], [ -149.780267439965343, -17.471851160267651 ] ] ] } },
{ "type": "Feature", "properties": { "id": 3 }, "geometry": { "type": "MultiLineString", "coordinates": [ [ [ -149.827262554865371, -17.47946588616988 ], [ -149.823217991361076, -17.477103388956444 ] ] ] } },
{ "type": "Feature", "properties": { "id": 4 }, "geometry": { "type": "MultiLineString", "coordinates": [ [ [ -149.895624659292992, -17.483883679257932 ], [ -149.893373171763557, -17.483920573642418 ] ] ] } },
{ "type": "Feature", "properties": { "id": 5 }, "geometry": { "type": "MultiLineString", "coordinates": [ [ [ -149.864541847850916, -17.488213450394795 ], [ -149.858234614560331, -17.487743188349263 ] ] ] } },
{ "type": "Feature", "properties": { "id": 6 }, "geometry": { "type": "MultiLineString", "coordinates": [ [ [ -149.909216062406017, -17.540450859803268 ], [ -149.908812846567486, -17.541007337566757 ] ] ] } },
{ "type": "Feature", "properties": { "id": 7 }, "geometry": { "type": "MultiLineString", "coordinates": [ [ [ -149.888503165525236, -17.560378620746768 ], [ -149.888334982579863, -17.560642500246363 ] ] ] } },
{ "type": "Feature", "properties": { "id": 8 }, "geometry": { "type": "MultiLineString", "coordinates": [ [ [ -149.846316569947419, -17.596935042308864 ], [ -149.843268088582221, -17.598109725788657 ] ] ] } },
{ "type": "Feature", "properties": { "id": 9 }, "geometry": { "type": "MultiLineString", "coordinates": [ [ [ -149.778483216096163, -17.558394885570362 ], [ -149.776382525551753, -17.555843638640305 ] ] ] } },
{ "type": "Feature", "properties": { "id": 10 }, "geometry": { "type": "MultiLineString", "coordinates": [ [ [ -149.76368019703267, -17.522107599797888 ], [ -149.763755660283437, -17.524948986502338 ] ] ] } },
{ "type": "Feature", "properties": { "id": 11 }, "geometry": { "type": "MultiLineString", "coordinates": [ [ [ -149.879867554185381, -17.570804543999305 ], [ -149.878617843840118, -17.572891973967351 ] ] ] } },
{ "type": "Feature", "properties": { "id": 12 }, "geometry": { "type": "MultiLineString", "coordinates": [ [ [ -149.787742865648511, -17.576045955359195 ], [ -149.787219976102392, -17.573304077428059 ] ] ] } },
{ "type": "Feature", "properties": { "id": 13 }, "geometry": { "type": "MultiLineString", "coordinates": [ [ [ -149.61931862580596, -17.601118839685277 ], [ -149.619599186104637, -17.602675496826357 ] ] ] } },
{ "type": "Feature", "properties": { "id": 14 }, "geometry": { "type": "MultiLineString", "coordinates": [ [ [ -149.618057215233506, -17.619314023957227 ], [ -149.618073664889721, -17.619291247510176 ], [ -149.61770924173689, -17.619856862611986 ] ] ] } },
{ "type": "Feature", "properties": { "id": 15 }, "geometry": { "type": "MultiLineString", "coordinates": [ [ [ -149.589560704081578, -17.689615365008457 ], [ -149.587666701829733, -17.692694384711974 ] ] ] } },
{ "type": "Feature", "properties": { "id": 16 }, "geometry": { "type": "MultiLineString", "coordinates": [ [ [ -149.596411209987423, -17.674210031074043 ], [ -149.596314496348924, -17.674673238500588 ] ] ] } },
{ "type": "Feature", "properties": { "id": 17 }, "geometry": { "type": "MultiLineString", "coordinates": [ [ [ -149.581478277359793, -17.748476295952528 ], [ -149.578941124610679, -17.749929714792842 ] ] ] } },
{ "type": "Feature", "properties": { "id": 18 }, "geometry": { "type": "MultiLineString", "coordinates": [ [ [ -149.561100028532536, -17.759179434346262 ], [ -149.559669398489348, -17.759262993269136 ] ] ] } },
{ "type": "Feature", "properties": { "id": 18 }, "geometry": { "type": "MultiLineString", "coordinates": [ [ [ -149.525039289134895, -17.765695764286232 ], [ -149.523395963651694, -17.765670443400513 ] ] ] } },
{ "type": "Feature", "properties": { "id": null }, "geometry": { "type": "MultiLineString", "coordinates": [ [ [ -149.503065824507274, -17.765246318564706 ], [ -149.501944109269886, -17.765142502933255 ] ] ] } },
{ "type": "Feature", "properties": { "id": null }, "geometry": { "type": "MultiLineString", "coordinates": [ [ [ -149.427046221193109, -17.78562238554689 ], [ -149.422140514898587, -17.78459806672322 ] ] ] } },
{ "type": "Feature", "properties": { "id": null }, "geometry": { "type": "MultiLineString", "coordinates": [ [ [ -149.404745468328002, -17.778231672599418 ], [ -149.399288559079025, -17.777588602485903 ] ] ] } },
{ "type": "Feature", "properties": { "id": null }, "geometry": { "type": "MultiLineString", "coordinates": [ [ [ -149.360447124222645, -17.769026583260246 ], [ -149.357966710927656, -17.767143306499236 ] ] ] } },
{ "type": "Feature", "properties": { "id": null }, "geometry": { "type": "MultiLineString", "coordinates": [ [ [ -149.349083156645236, -17.760602364773192 ], [ -149.345298229691394, -17.758847702034885 ] ] ] } },
{ "type": "Feature", "properties": { "id": null }, "geometry": { "type": "MultiLineString", "coordinates": [ [ [ -149.336085101975726, -17.761034140420843 ], [ -149.331463035534853, -17.763588047443086 ] ] ] } },
{ "type": "Feature", "properties": { "id": null }, "geometry": { "type": "MultiLineString", "coordinates": [ [ [ -149.314779959447065, -17.794946902192869 ], [ -149.31060919042514, -17.800670226203156 ] ] ] } },
{ "type": "Feature", "properties": { "id": null }, "geometry": { "type": "MultiLineString", "coordinates": [ [ [ -149.296094179291515, -17.841819823431198 ], [ -149.295138760837148, -17.842805098712265 ] ] ] } },
{ "type": "Feature", "properties": { "id": null }, "geometry": { "type": "MultiLineString", "coordinates": [ [ [ -149.27481430023164, -17.857374081801854 ], [ -149.273202031589904, -17.857911504682434 ] ] ] } },
{ "type": "Feature", "properties": { "id": null }, "geometry": { "type": "MultiLineString", "coordinates": [ [ [ -149.254663238888782, -17.860465411704677 ], [ -149.252472207144876, -17.861848012448732 ] ] ] } },
{ "type": "Feature", "properties": { "id": null }, "geometry": { "type": "MultiLineString", "coordinates": [ [ [ -149.233294937688214, -17.873303847185213 ], [ -149.230552702989854, -17.873900983719192 ] ] ] } },
{ "type": "Feature", "properties": { "id": null }, "geometry": { "type": "MultiLineString", "coordinates": [ [ [ -149.191702081417617, -17.883271433944703 ], [ -149.190311442297116, -17.883487321768531 ] ] ] } },
{ "type": "Feature", "properties": { "id": null }, "geometry": { "type": "MultiLineString", "coordinates": [ [ [ -149.128220726158247, -17.864778574823191 ], [ -149.127899191101505, -17.863763442715427 ] ] ] } }
]
}
